start=new Date('2022-09-20T00:00:00.000Z').valueOf();
sats=[{"MEAN_MOTION_DOT":"0.00002181","OBJECT_ID":"2022-049AN","MEAN_ELEMENT_THEORY":"SGP4","CLASSIFICATION_TYPE":"U","MEAN_MOTION":"15.08841828","PERIOD":"95.437","REV_AT_EPOCH":"2234","DECAY_DATE":null,"OBJECT_NAME":"STARLINK-3902","RCS_SIZE":"LARGE","ELEMENT_SET_NO":"999","COUNTRY_CODE":"US","BSTAR":"0.00015505000000","FILE":"3578162","INCLINATION":"53.2175","NORAD_CAT_ID":"52487","APOAPSIS":"540.964","EPHEMERIS_TYPE":"0","TLE_LINE1":"1 52487U 22049AN  22262.60469485  .00002181  00000-0  15505-3 0  9990","EPOCH":"2022-09-19T14:30:45.635040","PERIAPSIS":"538.516","LAUNCH_DATE":"2022-05-06","GP_ID":"213035829","CENTER_NAME":"EARTH","MEAN_MOTION_DDOT":"0.0000000000000","OBJECT_TYPE":"PAYLOAD","RA_OF_ASC_NODE":"337.2807","ECCENTRICITY":"0.00017690","ARG_OF_PERICENTER":"48.2218","TLE_LINE2":"2 52487  53.2175 337.2807 0001769  48.2218 311.8926 15.08841828 22345","SEMIMAJOR_AXIS":"6917.875","MEAN_ANOMALY":"311.8926","REF_FRAME":"TEME","SITE":"AFETR","TIME_SYSTEM":"UTC"},{"EPOCH":"2022-09-19T15:21:03.587040","PERIAPSIS":"538.554","GP_ID":"213035445","LAUNCH_DATE":"2022-05-06","CENTER_NAME":"EARTH","EPHEMERIS_TYPE":"0","TLE_LINE1":"1 52488U 22049AP  22262.63962485  .00002110  00000-0  15059-3 0  9998","RA_OF_ASC_NODE":"347.1232","OBJECT_TYPE":"PAYLOAD","ECCENTRICITY":"0.00017090","ARG_OF_PERICENTER":"46.6694","TLE_LINE2":"2 52488  53.2205 347.1232 0001709  46.6694 313.4440 15.08842871 20971","SEMIMAJOR_AXIS":"6917.872","MEAN_ANOMALY":"313.4440","REF_FRAME":"TEME","SITE":"AFETR","TIME_SYSTEM":"UTC","MEAN_MOTION_DDOT":"0.0000000000000","MEAN_ELEMENT_THEORY":"SGP4","CLASSIFICATION_TYPE":"U","MEAN_MOTION":"15.08842871","PERIOD":"95.437","REV_AT_EPOCH":"2097","DECAY_DATE":null,"MEAN_MOTION_DOT":"0.00002110","OBJECT_ID":"2022-049AP","FILE":"3578162","INCLINATION":"53.2205","NORAD_CAT_ID":"52488","APOAPSIS":"540.919","RCS_SIZE":"LARGE","OBJECT_NAME":"STARLINK-3892","ELEMENT_SET_NO":"999","COUNTRY_CODE":"US","BSTAR":"0.00015059000000"},{"COUNTRY_CODE":"US","BSTAR":"0.00016040000000","RCS_SIZE":"LARGE","ELEMENT_SET_NO":"999","OBJECT_NAME":"STARLINK-3923","APOAPSIS":"540.971","NORAD_CAT_ID":"52489","INCLINATION":"53.2210","FILE":"3578162","OBJECT_ID":"2022-049AQ","MEAN_MOTION_DOT":"0.00002266","REV_AT_EPOCH":"2097","DECAY_DATE":null,"CLASSIFICATION_TYPE":"U","MEAN_ELEMENT_THEORY":"SGP4","PERIOD":"95.437","MEAN_MOTION":"15.08841746","MEAN_MOTION_DDOT":"0.0000000000000","REF_FRAME":"TEME","SEMIMAJOR_AXIS":"6917.875","TLE_LINE2":"2 52489  53.2210 347.0940 0001779  49.7922 310.3225 15.08841746 20975","MEAN_ANOMALY":"310.3225","TIME_SYSTEM":"UTC","SITE":"AFETR","OBJECT_TYPE":"PAYLOAD","RA_OF_ASC_NODE":"347.0940","ECCENTRICITY":"0.00017790","ARG_OF_PERICENTER":"49.7922","TLE_LINE1":"1 52489U 22049AQ  22262.64699094  .00002266  00000-0  16040-3 0  9996","EPHEMERIS_TYPE":"0","GP_ID":"213034710","LAUNCH_DATE":"2022-05-06","PERIAPSIS":"538.509","CENTER_NAME":"EARTH","EPOCH":"2022-09-19T15:31:40.017216"},{"EPOCH":"2022-09-19T14:08:11.520672","CENTER_NAME":"EARTH","GP_ID":"213035286","LAUNCH_DATE":"2022-05-06","PERIAPSIS":"538.440","EPHEMERIS_TYPE":"0","TLE_LINE1":"1 52490U 22049AR  22262.58902223  .00004175  00000-0  28018-3 0  9991","ARG_OF_PERICENTER":"45.3176","ECCENTRICITY":"0.00018280","OBJECT_TYPE":"PAYLOAD","RA_OF_ASC_NODE":"337.3510","TIME_SYSTEM":"UTC","SITE":"AFETR","REF_FRAME":"TEME","TLE_LINE2":"2 52490  53.2197 337.3510 0001828  45.3176 314.7965 15.08853301 21109","SEMIMAJOR_AXIS":"6917.840","MEAN_ANOMALY":"314.7965","MEAN_MOTION_DDOT":"0.0000000000000","PERIOD":"95.437","MEAN_MOTION":"15.08853301","MEAN_ELEMENT_THEORY":"SGP4","CLASSIFICATION_TYPE":"U","DECAY_DATE":null,"REV_AT_EPOCH":"2110","MEAN_MOTION_DOT":"0.00004175","OBJECT_ID":"2022-049AR","INCLINATION":"53.2197","FILE":"3578162","APOAPSIS":"540.969","NORAD_CAT_ID":"52490","RCS_SIZE":"LARGE","OBJECT_NAME":"STARLINK-3914","ELEMENT_SET_NO":"999","BSTAR":"0.00028018000000","COUNTRY_CODE":"US"},{"REF_FRAME":"TEME","MEAN_ANOMALY":"315.0285","TLE_LINE2":"2 52491  53.2198 337.9103 0001741  45.0848 315.0285 15.08846153 21085","SEMIMAJOR_AXIS":"6917.862","TIME_SYSTEM":"UTC","SITE":"AFETR","RA_OF_ASC_NODE":"337.9103","OBJECT_TYPE":"PAYLOAD","ECCENTRICITY":"0.00017410","ARG_OF_PERICENTER":"45.0848","MEAN_MOTION_DDOT":"0.0000000000000","GP_ID":"213004095","LAUNCH_DATE":"2022-05-06","PERIAPSIS":"538.522","CENTER_NAME":"EARTH","EPOCH":"2022-09-19T11:08:00.890880","TLE_LINE1":"1 52491U 22049AS  22262.46389920  .00001889  00000-0  13670-3 0  9999","EPHEMERIS_TYPE":"0","APOAPSIS":"540.931","NORAD_CAT_ID":"52491","INCLINATION":"53.2198","FILE":"3577889","COUNTRY_CODE":"US","BSTAR":"0.00013670000000","RCS_SIZE":"MEDIUM","OBJECT_NAME":"STARLINK-3908","ELEMENT_SET_NO":"999","REV_AT_EPOCH":"2108","DECAY_DATE":null,"CLASSIFICATION_TYPE":"U","MEAN_ELEMENT_THEORY":"SGP4","PERIOD":"95.437","MEAN_MOTION":"15.08846153","OBJECT_ID":"2022-049AS","MEAN_MOTION_DOT":"0.00001889"},{"PERIAPSIS":"538.354","GP_ID":"213035030","LAUNCH_DATE":"2022-05-06","CENTER_NAME":"EARTH","EPOCH":"2022-09-19T15:32:59.970912","TLE_LINE1":"1 52492U 22049AT  22262.64791633  .00001137  00000-0  89548-4 0  9992","EPHEMERIS_TYPE":"0","TLE_LINE2":"2 52492  53.2210 337.0908 0002029  39.8424 320.2717 15.08836086 21112","MEAN_ANOMALY":"320.2717","SEMIMAJOR_AXIS":"6917.892","REF_FRAME":"TEME","SITE":"AFETR","TIME_SYSTEM":"UTC","RA_OF_ASC_NODE":"337.0908","OBJECT_TYPE":"PAYLOAD","ECCENTRICITY":"0.00020290","ARG_OF_PERICENTER":"39.8424","MEAN_MOTION_DDOT":"0.0000000000000","REV_AT_EPOCH":"2111","DECAY_DATE":null,"MEAN_ELEMENT_THEORY":"SGP4","CLASSIFICATION_TYPE":"U","MEAN_MOTION":"15.08836086","PERIOD":"95.438","OBJECT_ID":"2022-049AT","MEAN_MOTION_DOT":"0.00001137","NORAD_CAT_ID":"52492","APOAPSIS":"541.161","FILE":"3578162","INCLINATION":"53.2210","COUNTRY_CODE":"US","BSTAR":"0.00008954800000","ELEMENT_SET_NO":"999","RCS_SIZE":"LARGE","OBJECT_NAME":"STARLINK-3916"},{"CENTER_NAME":"EARTH","PERIAPSIS":"538.608","LAUNCH_DATE":"2022-05-06","GP_ID":"213004775","EPOCH":"2022-09-19T11:02:43.606752","TLE_LINE1":"1 52493U 22049AU  22262.46022693  .00000271  00000-0  35116-4 0  9996","EPHEMERIS_TYPE":"0","SITE":"AFETR","TIME_SYSTEM":"UTC","TLE_LINE2":"2 52493  53.2210 337.9267 0001642  45.7126 314.4001 15.08840367 21089","SEMIMAJOR_AXIS":"6917.879","MEAN_ANOMALY":"314.4001","REF_FRAME":"TEME","ECCENTRICITY":"0.00016420","ARG_OF_PERICENTER":"45.7126","OBJECT_TYPE":"PAYLOAD","RA_OF_ASC_NODE":"337.9267","MEAN_MOTION_DDOT":"0.0000000000000","DECAY_DATE":null,"REV_AT_EPOCH":"2108","MEAN_MOTION":"15.08840367","PERIOD":"95.438","MEAN_ELEMENT_THEORY":"SGP4","CLASSIFICATION_TYPE":"U","OBJECT_ID":"2022-049AU","MEAN_MOTION_DOT":"0.00000271","NORAD_CAT_ID":"52493","APOAPSIS":"540.880","FILE":"3577889","INCLINATION":"53.2210","BSTAR":"0.00003511600000","COUNTRY_CODE":"US","ELEMENT_SET_NO":"999","RCS_SIZE":"LARGE","OBJECT_NAME":"STARLINK-3883"},{"COUNTRY_CODE":"US","BSTAR":"0.00003665800000","ELEMENT_SET_NO":"999","RCS_SIZE":"LARGE","OBJECT_NAME":"STARLINK-3857","NORAD_CAT_ID":"52494","APOAPSIS":"541.237","FILE":"3578162","INCLINATION":"53.2200","OBJECT_ID":"2022-049AV","MEAN_MOTION_DOT":"0.00000295","REV_AT_EPOCH":"2111","DECAY_DATE":null,"CLASSIFICATION_TYPE":"U","MEAN_ELEMENT_THEORY":"SGP4","MEAN_MOTION":"15.08835601","PERIOD":"95.438","MEAN_MOTION_DDOT":"0.0000000000000","TLE_LINE2":"2 52494  53.2200 337.1433 0002137  34.9543 325.1589 15.08835601 21118","MEAN_ANOMALY":"325.1589","SEMIMAJOR_AXIS":"6917.894","REF_FRAME":"TEME","SITE":"AFETR","TIME_SYSTEM":"UTC","OBJECT_TYPE":"PAYLOAD","RA_OF_ASC_NODE":"337.1433","ECCENTRICITY":"0.00021370","ARG_OF_PERICENTER":"34.9543","TLE_LINE1":"1 52494U 22049AV  22262.63687213  .00000295  00000-0  36658-4 0  9999","EPHEMERIS_TYPE":"0","PERIAPSIS":"538.280","LAUNCH_DATE":"2022-05-06","GP_ID":"213034870","CENTER_NAME":"EARTH","EPOCH":"2022-09-19T15:17:05.752032"},{"TIME_SYSTEM":"UTC","SITE":"AFETR","REF_FRAME":"TEME","SEMIMAJOR_AXIS":"6917.891","TLE_LINE2":"2 52495  53.2212 337.3663 0001951  46.7045 313.4110 15.08836432 21102","MEAN_ANOMALY":"313.4110","ECCENTRICITY":"0.00019510","ARG_OF_PERICENTER":"46.7045","OBJECT_TYPE":"PAYLOAD","RA_OF_ASC_NODE":"337.3663","MEAN_MOTION_DDOT":"0.0000000000000","CENTER_NAME":"EARTH","LAUNCH_DATE":"2022-05-06","GP_ID":"213035830","PERIAPSIS":"538.407","EPOCH":"2022-09-19T14:02:54.758400","TLE_LINE1":"1 52495U 22049AW  22262.58535600  .00001535  00000-0  11456-3 0  9992","EPHEMERIS_TYPE":"0","APOAPSIS":"541.106","NORAD_CAT_ID":"52495","INCLINATION":"53.2212","FILE":"3578162","BSTAR":"0.00011456000000","COUNTRY_CODE":"US","ELEMENT_SET_NO":"999","RCS_SIZE":"LARGE","OBJECT_NAME":"STARLINK-3905","DECAY_DATE":null,"REV_AT_EPOCH":"2110","PERIOD":"95.438","MEAN_MOTION":"15.08836432","MEAN_ELEMENT_THEORY":"SGP4","CLASSIFICATION_TYPE":"U","OBJECT_ID":"2022-049AW","MEAN_MOTION_DOT":"0.00001535"},{"TIME_SYSTEM":"UTC","SITE":"AFETR","REF_FRAME":"TEME","SEMIMAJOR_AXIS":"6917.888","TLE_LINE2":"2 52496  53.2150 332.2776 0001916  43.5209 316.5934 15.08837635 21172","MEAN_ANOMALY":"316.5934","ECCENTRICITY":"0.00019160","ARG_OF_PERICENTER":"43.5209","RA_OF_ASC_NODE":"332.2776","OBJECT_TYPE":"PAYLOAD","MEAN_MOTION_DDOT":"0.0000000000000","CENTER_NAME":"EARTH","GP_ID":"213035446","LAUNCH_DATE":"2022-05-06","PERIAPSIS":"538.427","EPOCH":"2022-09-19T14:32:42.253440","TLE_LINE1":"1 52496U 22049AX  22262.60604460  .00001362  00000-0  10369-3 0  9997","EPHEMERIS_TYPE":"0","APOAPSIS":"541.078","NORAD_CAT_ID":"52496","INCLINATION":"53.2150","FILE":"3578162","BSTAR":"0.00010369000000","COUNTRY_CODE":"US","RCS_SIZE":"LARGE","OBJECT_NAME":"STARLINK-3871","ELEMENT_SET_NO":"999","DECAY_DATE":null,"REV_AT_EPOCH":"2117","PERIOD":"95.438","MEAN_MOTION":"15.08837635","MEAN_ELEMENT_THEORY":"SGP4","CLASSIFICATION_TYPE":"U","OBJECT_ID":"2022-049AX","MEAN_MOTION_DOT":"0.00001362"}];
